{
 "type": "FeatureCollection",
 "properties": {
  "scene": "Oil/00067",
  "threshold": 0.325,
  "min_area_px": 250,
  "model": "E5_focal"
 },
 "features": [
  {
   "type": "Feature",
   "properties": {
    "id": "slick_000",
    "scene_id": "Oil/00067",
    "confidence": 0.768,
    "area_km2": 266.926,
    "centroid": {
     "lat": 35.63533,
     "lon": 34.8704
    },
    "centroid_inside_scene": true
   },
   "geometry": {
    "type": "MultiPolygon",
    "coordinates": [
     [
      [
       [
        34.83144573476409,
        35.67966919224653
       ],
       [
        34.83171522934932,
        35.68011834988859
       ],
       [
        34.83216438699138,
        35.680028518360174
       ],
       [
        34.832793207690266,
        35.6794895291897
       ],
       [
        34.83405084908804,
        35.679309866132876
       ],
       [
        34.834230512144856,
        35.67895054001923
       ],
       [
        34.834500006730096,
        35.681016665172706
       ],
       [
        34.83557798507104,
        35.68155565434318
       ],
       [
        34.83629663729833,
        35.682903127269356
       ],
       [
        34.836386468826745,
        35.68371161102506
       ],
       [
        34.83701528952563,
        35.684340431723946
       ],
       [
        34.83710512105404,
        35.68514891547965
       ],
       [
        34.83791360480975,
        35.68577773617854
       ],
       [
        34.83890175162228,
        35.688113355917245
       ],
       [
        34.84033905607687,
        35.68955066037184
       ],
       [
        34.84105770830416,
        35.69107779635485
       ],
       [
        34.84123737136099,
        35.692155774695784
       ],
       [
        34.84438147485541,
        35.69422189984926
       ],
       [
        34.845639116253174,
        35.695749035832264
       ],
       [
        34.84716625223618,
        35.695749035832264
       ],
       [
        34.847076420707765,
        35.69512021513338
       ],
       [
        34.845189958611115,
        35.69251510080944
       ],
       [
        34.845459453196355,
        35.69035914412755
       ],
       [
        34.84527979013953,
        35.68856251355931
       ],
       [
        34.843752654156525,
        35.68820318744566
       ],
       [
        34.84285433887241,
        35.686496388405835
       ],
       [
        34.84294417040082,
        35.68577773617854
       ],
       [
        34.84195602358829,
        35.685238747008064
       ],
       [
        34.84213568664511,
        35.68496925242283
       ],
       [
        34.84168652900305,
        35.68469975783759
       ],
       [
        34.84069838219052,
        35.68254380115571
       ],
       [
        34.84024922454846,
        35.68218447504206
       ],
       [
        34.8405187191337,
        35.680747170587466
       ],
       [
        34.84006956149163,
        35.68056750753065
       ],
       [
        34.84006956149163,
        35.67984885530335
       ],
       [
        34.839710235377986,
        35.67966919224653
       ],
       [
        34.8398000669064,
        35.679309866132876
       ],
       [
        34.839530572321166,
        35.67904037154764
       ],
       [
        34.839979729963225,
        35.67850138237717
       ],
       [
        34.84096787677576,
        35.678681045434
       ],
       [
        34.84078821371893,
        35.67886070849082
       ],
       [
        34.841417034417816,
        35.67939969766129
       ],
       [
        34.841417034417816,
        35.67984885530335
       ],
       [
        34.840878045247344,
        35.680747170587466
       ],
       [
        34.84213568664511,
        35.681016665172706
       ],
       [
        34.84339332804288,
        35.68236413809888
       ],
       [
        34.843034001929226,
        35.68308279032618
       ],
       [
        34.8435729910997,
        35.68389127408189
       ],
       [
        34.84348315957129,
        35.684609926309186
       ],
       [
        34.84384248568494,
        35.68487942089442
       ],
       [
        34.84339332804288,
        35.68577773617854
       ],
       [
        34.84536962166794,
        35.68676588299107
       ],
       [
        34.845639116253174,
        35.687394703689954
       ],
       [
        34.845639116253174,
        35.68874217661613
       ],
       [
        34.84644760000889,
        35.6892811657866
       ],
       [
        34.846627263065706,
        35.6899998180139
       ],
       [
        34.847345915293005,
        35.690269312599135
       ],
       [
        34.84788490446348,
        35.691257459411666
       ],
       [
        34.84761540987824,
        35.692604932337844
       ],
       [
        34.8480645675203,
        35.69305408997991
       ],
       [
        34.847795072935064,
        35.69323375303673
       ],
       [
        34.84968153503171,
        35.69556937277544
       ],
       [
        34.850669681844245,
        35.69592869888909
       ],
       [
        34.85057985031583,
        35.69637785653115
       ],
       [
        34.85120867101472,
        35.69772532945733
       ],
       [
        34.851657828656776,
        35.69772532945733
       ],
       [
        34.85201715477042,
        35.69835415015621
       ],
       [
        34.852376480884075,
        35.69835415015621
       ],
       [
        34.8518374917136,
        35.69880330779827
       ],
       [
        34.85228664935566,
        35.698893139326685
       ],
       [
        34.851927323242016,
        35.69943212849716
       ],
       [
        34.853005301582954,
        35.69997111766763
       ],
       [
        34.85309513311137,
        35.70095926448016
       ],
       [
        34.85273580699772,
        35.701228759065394
       ],
       [
        34.85327479616819,
        35.7020372428211
       ],
       [
        34.853993448395485,
        35.70248640046316
       ],
       [
        34.853813785338666,
        35.70329488421887
       ],
       [
        34.85417311145231,
        35.703923704917756
       ],
       [
        34.85462226909437,
        35.70464235714505
       ],
       [
        34.85579007896373,
        35.704822020201874
       ],
       [
        34.85623923660579,
        35.70527117784393
       ],
       [
        34.8563290681342,
        35.705989830071225
       ],
       [
        34.85740704647514,
        35.705989830071225
       ],
       [
        34.85767654106038,
        35.706708482298524
       ],
       [
        34.85893418245814,
        35.707247471468996
       ],
       [
        34.85839519328767,
        35.70733730299741
       ],
       [
        34.85866468787291,
        35.70832544980994
       ],
       [
        34.8593833401002,
        35.70886443898041
       ],
       [
        34.8593833401002,
        35.70994241732135
       ],
       [
        34.86001216079909,
        35.710571238020236
       ],
       [
        34.86144946525368,
        35.71398483609989
       ],
       [
        34.86207828595256,
        35.71452382527036
       ],
       [
        34.86288676970827,
        35.71596112972495
       ],
       [
        34.863785084992394,
        35.71623062431019
       ],
       [
        34.865222389446984,
        35.717488265707956
       ],
       [
        34.86513255791857,
        35.717937423350016
       ],
       [
        34.864773231804925,
        35.71811708640684
       ],
       [
        34.864503737219685,
        35.71811708640684
       ],
       [
        34.86441390569127,
        35.717757760293196
       ],
       [
        34.86414441110604,
        35.7178475918216
       ],
       [
        34.86423424263445,
        35.718206917935255
       ],
       [
        34.86342575887874,
        35.7178475918216
       ],
       [
        34.863066432765095,
        35.71847641252049
       ],
       [
        34.863515590407154,
        35.71910523321937
       ],
       [
        34.864054579577626,
        35.71901540169096
       ],
       [
        34.86369525346398,
        35.71955439086143
       ],
       [
        34.8638749165208,
        35.720093380031905
       ],
       [
        34.86504272639016,
        35.72018321156032
       ],
       [
        34.864773231804925,
        35.72135102142967
       ],
       [
        34.86603087320269,
        35.7223391682422
       ],
       [
        34.866210536259516,
        35.7230578204695
       ],
       [
        34.866839356958394,
        35.72323748352632
       ],
       [
        34.86656986237316,
        35.72350697811156
       ],
       [
        34.86701902001522,
        35.723686641168385
       ],
       [
        34.866839356958394,
        35.72404596728203
       ],
       [
        34.86746817765728,
        35.72476461950932
       ],
       [
        34.867647840714106,
        35.726022260907094
       ],
       [
        34.868546155998224,
        35.72719007077645
       ],
       [
        34.86872581905505,
        35.727010407719625
       ],
       [
        34.86917497669711,
        35.729166364401514
       ],
       [
        34.86890548211187,
        35.73024434274245
       ],
       [
        34.871690259492645,
        35.72979518510039
       ],
       [
        34.87204958560629,
        35.73051383732769
       ],
       [
        34.87348689006088,
        35.7313223210834
       ],
       [
        34.873756384646114,
        35.73213080483911
       ],
       [
        34.87447503687341,
        35.73275962553799
       ],
       [
        34.87483436298706,
        35.733927435407345
       ],
       [
        34.87537335215753,
        35.734376593049404
       ],
       [
        34.87537335215753,
        35.73545457139035
       ],
       [
        34.874744531458646,
        35.73644271820288
       ],
       [
        34.87537335215753,
        35.73779019112906
       ],
       [
        34.87600217285642,
        35.737969854185884
       ],
       [
        34.87716998272577,
        35.737700359600645
       ],
       [
        34.87851745565195,
        35.738149517242704
       ],
       [
        34.879236107879244,
        35.738958000998416
       ],
       [
        34.87986492857813,
        35.73904783252683
       ],
       [
        34.880224254691775,
        35.739586821697294
       ],
       [
        34.88085307539066,
        35.739407158640475
       ],
       [
        34.882110716788425,
        35.74048513698142
       ],
       [
        34.882829369015724,
        35.740395305453006
       ],
       [
        34.882829369015724,
        35.74066480003824
       ],
       [
        34.88390734735667,
        35.74147328379395
       ],
       [
        34.885524314868086,
        35.74120378920871
       ],
       [
        34.88606330403856,
        35.74156311532236
       ],
       [
        34.887590440021555,
        35.741293620737125
       ],
       [
        34.88839892377727,
        35.74156311532236
       ],
       [
        34.89109386962962,
        35.74138345226554
       ],
       [
        34.89531595146499,
        35.74165294685077
       ],
       [
        34.94885554239851,
        35.74147328379395
       ],
       [
        34.94885554239851,
        35.72063236920238
       ],
       [
        34.948226721699626,
        35.720273043088724
       ],
       [
        34.94858604781327,
        35.71955439086143
       ],
       [
        34.9480470586428,
        35.718656075577314
       ],
       [
        34.94813689017121,
        35.71901540169096
       ],
       [
        34.94714874335868,
        35.720093380031905
       ],
       [
        34.94562160737568,
        35.71973405391826
       ],
       [
        34.945980933489324,
        35.71955439086143
       ],
       [
        34.94562160737568,
        35.71928489627619
       ],
       [
        34.94589110196092,
        35.71901540169096
       ],
       [
        34.94562160737568,
        35.71874590710573
       ],
       [
        34.945980933489324,
        35.71847641252049
       ],
       [
        34.945801270432504,
        35.718206917935255
       ],
       [
        34.94669958571662,
        35.71811708640684
       ],
       [
        34.945801270432504,
        35.717757760293196
       ],
       [
        34.94634025960298,
        35.71757809723637
       ],
       [
        34.94589110196092,
        35.717218771122724
       ],
       [
        34.94625042807456,
        35.7170391080659
       ],
       [
        34.94589110196092,
        35.71667978195225
       ],
       [
        34.94607076501774,
        35.71641028736701
       ],
       [
        34.94526228126203,
        35.71542214055448
       ],
       [
        34.94418430292109,
        35.71551197208289
       ],
       [
        34.94328598763697,
        35.71524247749766
       ],
       [
        34.94265716693808,
        35.713625509986244
       ],
       [
        34.94292666152332,
        35.71344584692942
       ],
       [
        34.94283682999491,
        35.712457700116886
       ],
       [
        34.9435554822222,
        35.711918710946414
       ],
       [
        34.944363965977914,
        35.712457700116886
       ],
       [
        34.944094471392674,
        35.712727194702126
       ],
       [
        34.94454362903473,
        35.71308652081577
       ],
       [
        34.944633460563146,
        35.71353567845783
       ],
       [
        34.944363965977914,
        35.71380517304307
       ],
       [
        34.94472329209156,
        35.7140746676283
       ],
       [
        34.946969080301855,
        35.713176352344185
       ],
       [
        34.94813689017121,
        35.71551197208289
       ],
       [
        34.94858604781327,
        35.714613656798775
       ],
       [
        34.948675879341685,
        35.715062814440834
       ],
       [
        34.94885554239851,
        35.7147933198556
       ],
       [
        34.94894537392692,
        35.70733730299741
       ],
       [
        34.94849621628486,
        35.707247471468996
       ],
       [
        34.94894537392692,
        35.70661865077011
       ],
       [
        34.94894537392692,
        35.69655751958797
       ],
       [
        34.94885554239851,
        35.69610836194591
       ],
       [
        34.948406384756446,
        35.69583886736068
       ],
       [
        34.94885554239851,
        35.695749035832264
       ],
       [
        34.94894537392692,
        35.69269476386626
       ],
       [
        34.94894537392692,
        35.67293182761563
       ],
       [
        34.94849621628486,
        35.67275216455881
       ],
       [
        34.94894537392692,
        35.67212334385992
       ],
       [
        34.94894537392692,
        35.66251137031984
       ],
       [
        34.94885554239851,
        35.66161305503572
       ],
       [
        34.94849621628486,
        35.66134356045049
       ],
       [
        34.94885554239851,
        35.66125372892208
       ],
       [
        34.94894537392692,
        35.6599062559959
       ],
       [
        34.94894537392692,
        35.64149079267145
       ],
       [
        34.94885554239851,
        35.63834668917703
       ],
       [
        34.948406384756446,
        35.638256857648614
       ],
       [
        34.94894537392692,
        35.637628036949735
       ],
       [
        34.94894537392692,
        35.62774656882442
       ],
       [
        34.94885554239851,
        35.627117748125535
       ],
       [
        34.948406384756446,
        35.62693808506871
       ],
       [
        34.94885554239851,
        35.62675842201189
       ],
       [
        34.94894537392692,
        35.62280583476176
       ],
       [
        34.94894537392692,
        35.60385138226684
       ],
       [
        34.94858604781327,
        35.603761550738426
       ],
       [
        34.94894537392692,
        35.602773403925895
       ],
       [
        34.94894537392692,
        35.59289193580058
       ],
       [
        34.94849621628486,
        35.59235294663011
       ],
       [
        34.94894537392692,
        35.59199362051646
       ],
       [
        34.9487657108701,
        35.55803730277674
       ],
       [
        34.8698936289244,
        35.55794747124833
       ],
       [
        34.86863598752664,
        35.558216965833566
       ],
       [
        34.867647840714106,
        35.55794747124833
       ],
       [
        34.766048382080186,
        35.55794747124833
       ],
       [
        34.765329729852894,
        35.558216965833566
       ],
       [
        34.765329729852894,
        35.60169542558495
       ],
       [
        34.76577888749495,
        35.601875088641776
       ],
       [
        34.76577888749495,
        35.603222561567954
       ],
       [
        34.766767034307485,
        35.60295306698272
       ],
       [
        34.76739585500636,
        35.60331239309637
       ],
       [
        34.76910265404619,
        35.6035818876816
       ],
       [
        34.769372148631426,
        35.603761550738426
       ],
       [
        34.768833159460954,
        35.60385138226684
       ],
       [
        34.768833159460954,
        35.60412087685207
       ],
       [
        34.76946198015984,
        35.60457003449413
       ],
       [
        34.7706297900292,
        35.604659866022544
       ],
       [
        34.77036029544396,
        35.60528868672143
       ],
       [
        34.769821306273485,
        35.605648012835076
       ],
       [
        34.77000096933031,
        35.6058276758919
       ],
       [
        34.76928231710302,
        35.606097170477135
       ],
       [
        34.769821306273485,
        35.60627683353396
       ],
       [
        34.7699111378019,
        35.60690565423285
       ],
       [
        34.77027046391555,
        35.60717514881808
       ],
       [
        34.76946198015984,
        35.6080734641022
       ],
       [
        34.769821306273485,
        35.608253127159024
       ],
       [
        34.76910265404619,
        35.60843279021585
       ],
       [
        34.76919248557461,
        35.6087921163295
       ],
       [
        34.768833159460954,
        35.60888194785791
       ],
       [
        34.768833159460954,
        35.609241273971556
       ],
       [
        34.768204338762075,
        35.60888194785791
       ],
       [
        34.76685686583589,
        35.6087921163295
       ],
       [
        34.766767034307485,
        35.60843279021585
       ],
       [
        34.76595855055177,
        35.60834295868744
       ],
       [
        34.76568905596654,
        35.60870228480108
       ],
       [
        34.76577888749495,
        35.61103790453979
       ],
       [
        34.766317876665426,
        35.611397230653445
       ],
       [
        34.76577888749495,
        35.61148706218185
       ],
       [
        34.76523989832448,
        35.612834535108036
       ],
       [
        34.7654195613813,
        35.63223814524501
       ],
       [
        34.76595855055177,
        35.632777134415484
       ],
       [
        34.76685686583589,
        35.632777134415484
       ],
       [
        34.767485686534776,
        35.633316123585956
       ],
       [
        34.76829417029049,
        35.63430427039849
       ],
       [
        34.768384001818895,
        35.6351127541542
       ],
       [
        34.768833159460954,
        35.63556191179626
       ],
       [
        34.77027046391555,
        35.635921237909905
       ],
       [
        34.7714382737849,
        35.63699921625085
       ],
       [
        34.77170776837014,
        35.63771786847814
       ],
       [
        34.77305524129632,
        35.638077194591794
       ],
       [
        34.77314507282473,
        35.63834668917703
       ],
       [
        34.77260608365426,
        35.63834668917703
       ],
       [
        34.772965409767906,
        35.638795846819086
       ],
       [
        34.77287557823949,
        35.6396043305748
       ],
       [
        34.774133219637264,
        35.63978399363162
       ],
       [
        34.77610951326233,
        35.64077214044415
       ],
       [
        34.777456986188504,
        35.64104163502939
       ],
       [
        34.77952311134198,
        35.6441857385238
       ],
       [
        34.7811400788534,
        35.64508405380792
       ],
       [
        34.783206204006866,
        35.64697051590458
       ],
       [
        34.78338586706369,
        35.64795866271711
       ],
       [
        34.783206204006866,
        35.64849765188758
       ],
       [
        34.78599098138764,
        35.64912647258646
       ],
       [
        34.786529970558114,
        35.64984512481376
       ],
       [
        34.78760794889906,
        35.65011461939899
       ],
       [
        34.788685927239996,
        35.65137226079676
       ],
       [
        34.78922491641047,
        35.65155192385358
       ],
       [
        34.789404579467295,
        35.652360407609294
       ],
       [
        34.79012323169459,
        35.652090913024054
       ],
       [
        34.79030289475141,
        35.65245023913771
       ],
       [
        34.79066222086506,
        35.65245023913771
       ],
       [
        34.790841883921885,
        35.65343838595024
       ],
       [
        34.791560536149184,
        35.653168891365
       ],
       [
        34.79290800907536,
        35.6538875435923
       ],
       [
        34.792997840603775,
        35.654965521933235
       ],
       [
        34.79497413422884,
        35.655684174160534
       ],
       [
        34.795602954927716,
        35.656672320973065
       ],
       [
        34.79650127021184,
        35.65730114167195
       ],
       [
        34.79650127021184,
        35.65775029931401
       ],
       [
        34.79811823772325,
        35.659816424467486
       ],
       [
        34.79901655300737,
        35.659996087524306
       ],
       [
        34.79955554217784,
        35.66053507669478
       ],
       [
        34.799645373706255,
        35.660265582109545
       ],
       [
        34.8000046998199,
        35.66116389739366
       ],
       [
        34.80054368899037,
        35.66125372892208
       ],
       [
        34.80126234121767,
        35.66197238114937
       ],
       [
        34.80189116191656,
        35.66305035949031
       ],
       [
        34.802789477200676,
        35.66340968560396
       ],
       [
        34.8067420644508,
        35.666733452155206
       ],
       [
        34.80719122209286,
        35.66799109355297
       ],
       [
        34.80773021126333,
        35.668080925081384
       ],
       [
        34.80817936890539,
        35.66870974578027
       ],
       [
        34.80934717877475,
        35.66915890342233
       ],
       [
        34.81006583100204,
        35.669787724121214
       ],
       [
        34.81069465170093,
        35.669787724121214
       ],
       [
        34.81186246157028,
        35.67212334385992
       ],
       [
        34.81312010296805,
        35.672662333030395
       ],
       [
        34.812760776854404,
        35.67293182761563
       ],
       [
        34.81428791283741,
        35.6734708167861
       ],
       [
        34.81545572270676,
        35.674548795127045
       ],
       [
        34.81590488034882,
        35.675986099581635
       ],
       [
        34.81671336410453,
        35.67652508875211
       ],
       [
        34.81931847842847,
        35.68128615975794
       ],
       [
        34.82012696218418,
        35.68218447504206
       ],
       [
        34.82264224497972,
        35.6839811056103
       ],
       [
        34.82434904401954,
        35.684340431723946
       ],
       [
        34.82497786471843,
        35.68416076866712
       ],
       [
        34.825157527775254,
        35.683801442553474
       ],
       [
        34.82497786471843,
        35.68263363268412
       ],
       [
        34.82434904401954,
        35.68137599128635
       ],
       [
        34.82434904401954,
        35.680747170587466
       ],
       [
        34.82461853860478,
        35.68047767600223
       ],
       [
        34.82524735930366,
        35.68011834988859
       ],
       [
        34.82596601153096,
        35.68029801294541
       ],
       [
        34.82623550611619,
        35.680028518360174
       ],
       [
        34.82893045196855,
        35.68011834988859
       ],
       [
        34.82973893572426,
        35.68038784447382
       ],
       [
        34.83117624017885,
        35.67966919224653
       ],
       [
        34.83072708253679,
        35.67939969766129
       ],
       [
        34.8308169140652,
        35.679130203076056
       ],
       [
        34.83189489240615,
        35.67886070849082
       ],
       [
        34.83189489240615,
        35.6794895291897
       ],
       [
        34.83144573476409,
        35.67966919224653
       ]
      ]
     ],
     [
      [
       [
        34.94328598763697,
        35.7147933198556
       ],
       [
        34.9435554822222,
        35.715062814440834
       ],
       [
        34.943645313750615,
        35.71497298291242
       ],
       [
        34.9435554822222,
        35.71470348832719
       ],
       [
        34.94328598763697,
        35.7147933198556
       ]
      ]
     ]
    ]
   }
  }
 ]
}